[
    {
        "Altitude(m)": 576678.5708477763,
        "Argument of Periapsis(deg)": -0.015068773855314936,
        "Eccentricity": 0.0,
        "Inclination(deg)": 97.0,
        "Latitude(deg)": 79.25655098976252,
        "Longitude(deg)": -121.49177082152515,
        "Mean Anomaly(deg)": 98.25089551279166,
        "RAAN(deg)": 120.00396470241235,
        "Satellite Name": "Starlink Shell 3 1828",
        "Satellite Number": 1828,
        "Semi-Major Axis(m)": 6938478.169268562,
        "Time(s)": 380
    },
    {
        "Altitude(m)": 576633.2473705496,
        "Argument of Periapsis(deg)": -0.015465320535717962,
        "Eccentricity": 0.0,
        "Inclination(deg)": 97.0,
        "Latitude(deg)": 78.77629914775028,
        "Longitude(deg)": -123.61401285478215,
        "Mean Anomaly(deg)": 98.8763717104967,
        "RAAN(deg)": 120.00406903668635,
        "Satellite Name": "Starlink Shell 3 1828",
        "Satellite Number": 1828,
        "Semi-Major Axis(m)": 6938478.169268562,
        "Time(s)": 390
    },
    {
        "Altitude(m)": 576584.7348617889,
        "Argument of Periapsis(deg)": -0.015861867216120987,
        "Eccentricity": 0.0,
        "Inclination(deg)": 97.0,
        "Latitude(deg)": 78.2827823577615,
        "Longitude(deg)": -125.56547946610385,
        "Mean Anomaly(deg)": 99.50184790820174,
        "RAAN(deg)": 120.00417337096037,
        "Satellite Name": "Starlink Shell 3 1828",
        "Satellite Number": 1828,
        "Semi-Major Axis(m)": 6938478.169268562,
        "Time(s)": 400
    },
    {
        "Altitude(m)": 576533.06076462,
        "Argument of Periapsis(deg)": -0.01625841389652401,
        "Eccentricity": 0.0,
        "Inclination(deg)": 97.0,
        "Latitude(deg)": 77.77760265492928,
        "Longitude(deg)": -127.36300921950453,
        "Mean Anomaly(deg)": 100.12732410590681,
        "RAAN(deg)": 120.00427770523437,
        "Satellite Name": "Starlink Shell 3 1828",
        "Satellite Number": 1828,
        "Semi-Major Axis(m)": 6938478.169268562,
        "Time(s)": 410
    },
    {
        "Altitude(m)": 576478.2543226732,
        "Argument of Periapsis(deg)": -0.016654960576927034,
        "Eccentricity": 0.0,
        "Inclination(deg)": 97.0,
        "Latitude(deg)": 77.2621428106264,
        "Longitude(deg)": -129.0219343659863,
        "Mean Anomaly(deg)": 100.75280030361183,
        "RAAN(deg)": 120.00438203950834,
        "Satellite Name": "Starlink Shell 3 1828",
        "Satellite Number": 1828,
        "Semi-Major Axis(m)": 6938478.169268562,
        "Time(s)": 420
    },
    {
        "Altitude(m)": 576420.3465663278,
        "Argument of Periapsis(deg)": -0.01705150725733006,
        "Eccentricity": 0.0,
        "Inclination(deg)": 97.0,
        "Latitude(deg)": 76.7375965425617,
        "Longitude(deg)": -130.55609126906904,
        "Mean Anomaly(deg)": 101.37827650131688,
        "RAAN(deg)": 120.00448637378237,
        "Satellite Name": "Starlink Shell 3 1828",
        "Satellite Number": 1828,
        "Semi-Major Axis(m)": 6938478.169268562,
        "Time(s)": 430
    },
    {
        "Altitude(m)": 576359.370298105,
        "Argument of Periapsis(deg)": -0.017448053937733084,
        "Eccentricity": 0.0,
        "Inclination(deg)": 97.0,
        "Latitude(deg)": 76.20499537805584,
        "Longitude(deg)": -131.9778902251227,
        "Mean Anomaly(deg)": 102.00375269902193,
        "RAAN(deg)": 120.00459070805638,
        "Satellite Name": "Starlink Shell 3 1828",
        "Satellite Number": 1828,
        "Semi-Major Axis(m)": 6938478.169268562,
        "Time(s)": 440
    },
    {
        "Altitude(m)": 576295.3600772124,
        "Argument of Periapsis(deg)": -0.017844600618136107,
        "Eccentricity": 0.0,
        "Inclination(deg)": 97.0,
        "Latitude(deg)": 75.66523210682458,
        "Longitude(deg)": -133.29841890146497,
        "Mean Anomaly(deg)": 102.62922889672697,
        "RAAN(deg)": 120.00469504233038,
        "Satellite Name": "Starlink Shell 3 1828",
        "Satellite Number": 1828,
        "Semi-Major Axis(m)": 6938478.169268562,
        "Time(s)": 450
    },
    {
        "Altitude(m)": 576228.3522032776,
        "Argument of Periapsis(deg)": -0.018241147298539134,
        "Eccentricity": 0.0,
        "Inclination(deg)": 97.0,
        "Latitude(deg)": 75.11908100609693,
        "Longitude(deg)": -134.5275584958822,
        "Mean Anomaly(deg)": 103.25470509443203,
        "RAAN(deg)": 120.00479937660441,
        "Satellite Name": "Starlink Shell 3 1828",
        "Satellite Number": 1828,
        "Semi-Major Axis(m)": 6938478.169268562,
        "Time(s)": 460
    },
    {
        "Altitude(m)": 576158.3846992104,
        "Argument of Periapsis(deg)": -0.018637693978942157,
        "Eccentricity": 0.0,
        "Inclination(deg)": 97.0,
        "Latitude(deg)": 74.56721514060538,
        "Longitude(deg)": -135.674102889767,
        "Mean Anomaly(deg)": 103.88018129213707,
        "RAAN(deg)": 120.00490371087841,
        "Satellite Name": "Starlink Shell 3 1828",
        "Satellite Number": 1828,
        "Semi-Major Axis(m)": 6938478.169268562,
        "Time(s)": 470
    },
    {
        "Altitude(m)": 576085.4972932584,
        "Argument of Periapsis(deg)": -0.019034240659345183,
        "Eccentricity": 0.0,
        "Inclination(deg)": 97.0,
        "Latitude(deg)": 74.0102210831862,
        "Longitude(deg)": -136.74587558637134,
        "Mean Anomaly(deg)": 104.50565748984211,
        "RAAN(deg)": 120.00500804515244,
        "Satellite Name": "Starlink Shell 3 1828",
        "Satellite Number": 1828,
        "Semi-Major Axis(m)": 6938478.169268562,
        "Time(s)": 480
    },
    {
        "Altitude(m)": 576009.7314002706,
        "Argument of Periapsis(deg)": -0.019430787339748207,
        "Eccentricity": 0.0,
        "Inclination(deg)": 97.0,
        "Latitude(deg)": 73.44861140135404,
        "Longitude(deg)": -137.74983768235882,
        "Mean Anomaly(deg)": 105.13113368754716,
        "RAAN(deg)": 120.00511237942644,
        "Satellite Name": "Starlink Shell 3 1828",
        "Satellite Number": 1828,
        "Semi-Major Axis(m)": 6938478.169268562,
        "Time(s)": 490
    },
    {
        "Altitude(m)": 575931.1301020912,
        "Argument of Periapsis(deg)": -0.019827334020151237,
        "Eccentricity": 0.0,
        "Inclination(deg)": 97.0,
        "Latitude(deg)": 72.88283523201021,
        "Longitude(deg)": -138.69218659015246,
        "Mean Anomaly(deg)": 105.7566098852522,
        "RAAN(deg)": 120.00521671370045,
        "Satellite Name": "Starlink Shell 3 1828",
        "Satellite Number": 1828,
        "Semi-Major Axis(m)": 6938478.169268562,
        "Time(s)": 500
    },
    {
        "Altitude(m)": 575849.7381272145,
        "Argument of Periapsis(deg)": -0.020223880700554257,
        "Eccentricity": 0.0,
        "Inclination(deg)": 97.0,
        "Latitude(deg)": 72.3132872329415,
        "Longitude(deg)": -139.57844643434942,
        "Mean Anomaly(deg)": 106.38208608295722,
        "RAAN(deg)": 120.00532104797445,
        "Satellite Name": "Starlink Shell 3 1828",
        "Satellite Number": 1828,
        "Semi-Major Axis(m)": 6938478.169268562,
        "Time(s)": 510
    },
    {
        "Altitude(m)": 575765.6018295848,
        "Argument of Periapsis(deg)": -0.020620427380957283,
        "Eccentricity": 0.0,
        "Inclination(deg)": 97.0,
        "Latitude(deg)": 71.74031516324382,
        "Longitude(deg)": -140.4135472295456,
        "Mean Anomaly(deg)": 107.00756228066226,
        "RAAN(deg)": 120.00542538224848,
        "Satellite Name": "Starlink Shell 3 1828",
        "Satellite Number": 1828,
        "Semi-Major Axis(m)": 6938478.169268562,
        "Time(s)": 520
    },
    {
        "Altitude(m)": 575678.7691666567,
        "Argument of Periapsis(deg)": -0.021016974061360306,
        "Eccentricity": 0.0,
        "Inclination(deg)": 97.0,
        "Latitude(deg)": 71.16422630925928,
        "Longitude(deg)": -141.2018948927072,
        "Mean Anomaly(deg)": 107.6330384783673,
        "RAAN(deg)": 120.00552971652245,
        "Satellite Name": "Starlink Shell 3 1828",
        "Satellite Number": 1828,
        "Semi-Major Axis(m)": 6938478.169268562,
        "Time(s)": 530
    },
    {
        "Altitude(m)": 575589.2896766263,
        "Argument of Periapsis(deg)": -0.021413520741763333,
        "Eccentricity": 0.0,
        "Inclination(deg)": 97.0,
        "Latitude(deg)": 70.5852929400102,
        "Longitude(deg)": -141.94743434883924,
        "Mean Anomaly(deg)": 108.25851467607237,
        "RAAN(deg)": 120.00563405079647,
        "Satellite Name": "Starlink Shell 3 1828",
        "Satellite Number": 1828,
        "Semi-Major Axis(m)": 6938478.169268562,
        "Time(s)": 540
    },
    {
        "Altitude(m)": 575497.2144549446,
        "Argument of Periapsis(deg)": -0.021810067422166356,
        "Eccentricity": 0.0,
        "Inclination(deg)": 97.0,
        "Latitude(deg)": 70.00375694724757,
        "Longitude(deg)": -142.65370353018582,
        "Mean Anomaly(deg)": 108.88399087377739,
        "RAAN(deg)": 120.00573838507047,
        "Satellite Name": "Starlink Shell 3 1828",
        "Satellite Number": 1828,
        "Semi-Major Axis(m)": 6938478.169268562,
        "Time(s)": 550
    },
    {
        "Altitude(m)": 575402.5961300245,
        "Argument of Periapsis(deg)": -0.022206614102569383,
        "Eccentricity": 0.0,
        "Inclination(deg)": 97.0,
        "Latitude(deg)": 69.4198338002748,
        "Longitude(deg)": -143.3238806124219,
        "Mean Anomaly(deg)": 109.50946707148245,
        "RAAN(deg)": 120.0058427193445,
        "Satellite Name": "Starlink Shell 3 1828",
        "Satellite Number": 1828,
        "Semi-Major Axis(m)": 6938478.169268562,
        "Time(s)": 560
    }
]